{
  "norad_id": 68344,
  "name": "STARLINK-36380",
  "history": [
    {
      "epoch": "2026-03-31T16:00:01.999584Z",
      "apogee_km": 322.65084656806357,
      "perigee_km": 321.63106426324885,
      "latitude_deg": -45.88996453813652,
      "longitude_deg": 133.30183447890974,
      "height_km": 338.0470857015468,
      "semi_major_axis_km": 6700.277955415656,
      "eccentricity": 7.61e-05,
      "inclination_deg": 53.1592,
      "raan_deg": 252.5705,
      "arg_perigee_deg": 67.0637,
      "mean_anomaly_deg": 229.5322,
      "mean_motion_rev_day": 15.82936644
    }
  ]
}